OBJECT_NAME,OBJECT_ID,EPOCH,MEAN_MOTION,ECCENTRICITY,INCLINATION,RA_OF_ASC_NODE,ARG_OF_PERICENTER,MEAN_ANOMALY,EPHEMERIS_TYPE,CLASSIFICATION_TYPE,NORAD_CAT_ID,ELEMENT_SET_NO,REV_AT_EPOCH,BSTAR,MEAN_MOTION_DOT,MEAN_MOTION_DDOT
PERSEUS-M1,2014-033AF,2026-07-04T02:18:16.337952,14.95687423,.00102392,97.9646,129.5063,237.9126,122.1101,0,U,40039,999,65316,.13936338E-3,.1491E-4,0
POLYITAN-1,2014-033AJ,2026-07-04T00:24:54.925632,15.33871195,.00086315,98.0935,212.8769,95.2802,264.9424,0,U,40042,999,65617,.71877767E-3,.23532E-3,0
TIGRISAT,2014-033AK,2026-07-03T21:23:55.471200,14.85222821,.00496109,97.7853,334.5225,21.4414,338.8864,0,U,40043,999,64810,.2397542E-3,.2046E-4,0
AEROCUBE 6A,2014-033AM,2026-07-03T10:53:19.101984,14.98249563,.00376587,97.7233,351.2313,321.2886,38.5638,0,U,40045,999,64905,.47526151E-3,.5671E-4,0
AEROCUBE 6B,2014-033AN,2026-07-04T04:10:42.697056,14.99720587,.00377542,97.7223,351.7719,309.2402,50.5472,0,U,40046,999,64930,.53497804E-3,.6644E-4,0
CANX-4,2014-034C,2026-07-04T02:33:57.128544,14.81296258,.00119317,98.3099,61.0395,321.8870,38.1497,0,U,40055,999,64703,.15286227E-3,.1136E-4,0
CANX-5,2014-034D,2026-07-04T02:31:24.705120,14.81313607,.00119193,98.3102,61.0823,322.1300,37.9072,0,U,40056,999,63784,.15341025E-3,.1141E-4,0
UKUBE-1,2014-037F,2026-07-03T23:00:56.825856,15.13812565,.0003183,98.4240,189.9960,106.0506,254.1073,0,U,40074,999,65109,.56511727E-3,.10136E-3,0
BRITE-PL2 (HEWELIUSZ),2014-049B,2026-07-04T01:02:11.887296,14.94655576,.00150118,97.9112,297.1746,57.2784,302.9880,0,U,40119,999,64396,.20566641E-3,.2174E-4,0
AEROCUBE 5C,2015-058B,2026-07-04T01:37:35.814432,14.91525821,.01316237,64.7652,210.0726,56.6951,304.6686,0,U,40965,999,36817,.26327344E-3,.2945E-4,0
AEROCUBE 7,2015-058C,2026-07-04T06:47:45.797280,14.95836497,.01213425,64.7604,191.2627,54.9541,306.2885,0,U,40966,999,36851,.42223492E-3,.531E-4,0
FOX-1A (AO-85),2015-058D,2026-07-04T02:54:00.566496,14.91042511,.0131532,64.7734,226.3568,50.0240,311.2334,0,U,40967,999,11609,.26142953E-3,.2883E-4,0
SINOD-D 1,2015-058E,2026-07-04T01:24:16.926336,14.96010269,.01202037,64.7731,206.0740,46.4359,314.6659,0,U,40968,999,11918,.37119785E-3,.4654E-4,0
SNAP-3 ALICE,2015-058G,2026-07-04T00:15:05.499648,15.64488007,.00235448,64.7493,45.5982,358.0234,2.0816,0,U,40970,999,11951,.1684538E-2,.168597E-2,0
LMRST-SAT,2015-058H,2026-07-04T01:55:53.942880,14.90658501,.01331013,64.7740,222.8520,52.0567,309.2485,0,U,40971,999,11607,.25275268E-3,.2763E-4,0
SNAP-3 EDDIE,2015-058J,2026-07-03T23:41:47.325120,15.65699419,.00243631,64.7408,36.2781,1.2294,358.8910,0,U,40972,999,12165,.16093638E-2,.169237E-2,0
PROPCUBE 3,2015-058K,2026-07-04T00:10:55.100352,14.94349268,.01249819,64.7664,199.9787,53.3206,307.9316,0,U,40973,999,11731,.33670887E-3,.4061E-4,0
BISONSAT,2015-058L,2026-07-04T05:54:21.382848,15.16671744,.00809582,64.7584,118.4723,40.4413,320.2690,0,U,40974,999,11820,.99021779E-3,.21042E-3,0
SNAP-3 JIMI,2015-058M,2026-07-03T23:07:43.370688,15.02480563,.01070758,64.7640,166.6854,48.6968,312.3306,0,U,40975,999,11674,.56176701E-3,.8296E-4,0
PROPCUBE 1 (FLORA),2015-058N,2026-07-04T04:26:42.769536,14.89291806,.01317028,64.7729,242.5524,54.3298,306.9989,0,U,40976,999,11879,.22110766E-3,.2296E-4,0
SINOD-D 3,2015-058P,2026-07-04T02:36:47.028960,14.94112236,.01202716,64.7705,222.9746,51.4358,309.7457,0,U,40977,999,11728,.32679905E-3,.3865E-4,0
HORYU-4,2016-012D,2026-07-01T19:00:28.190016,16.27112331,.00086595,30.9791,330.1929,346.1826,13.8606,0,U,41340,999,57316,.11150615E-2,.4204222E-1,-.3865025E-5
RAVAN,2016-067B,2026-07-04T03:43:58.531584,15.56420115,.00016778,97.9852,76.7075,308.8604,51.2499,0,U,41849,999,53033,.11220145E-2,.79818E-3,0
CELTEE 1,2016-067C,2026-07-04T01:29:56.518944,15.19850888,.00018625,98.0647,52.7800,123.6786,236.4625,0,U,41850,999,52844,.32783734E-3,.6955E-4,0
OPTICUBE 04,2016-067D,2026-07-04T01:07:26.132736,15.09735597,.00169097,98.0683,38.2093,63.3727,296.9230,0,U,41851,999,52771,.16840748E-3,.2653E-4,0
AEROCUBE 8D,2016-067E,2026-07-03T21:25:42.449952,15.24636107,.00049779,98.0655,56.3352,83.6012,276.5791,0,U,41852,999,52861,.36506004E-3,.8936E-4,0
AEROCUBE 8C,2016-067F,2026-07-03T14:05:15.643968,15.24882899,.0005433,98.0528,53.2126,21.9953,338.1515,0,U,41853,999,52856,.37755827E-3,.9314E-4,0
CORVUS BC2,2017-042X,2026-07-04T04:48:30.003264,15.06403607,.00140063,97.4082,345.8903,57.5437,302.7143,0,U,42846,999,48962,.32716978E-3,.4771E-4,0
CORVUS BC1,2017-042Y,2026-07-03T12:41:36.891744,15.06565738,.00125644,97.4116,346.0695,38.2170,321.9946,0,U,42847,999,48955,.31310097E-3,.4582E-4,0
MAKERSAT 0,2017-073D,2026-07-03T15:15:45.488160,15.32642938,.01049552,97.4595,67.2865,213.5729,145.8834,0,U,43016,999,46898,.55467001E-3,.20784E-3,0
