PERSEUS-M1              
1 40039U 14033AF  26185.09602243  .00001491  00000+0  13936-3 0  9994
2 40039  97.9646 129.5063 0010239 237.9126 122.1101 14.95687423653168
POLYITAN-1              
1 40042U 14033AJ  26185.01730238  .00023532  00000+0  71878-3 0  9995
2 40042  98.0935 212.8769 0008631  95.2802 264.9424 15.33871195656174
TIGRISAT                
1 40043U 14033AK  26184.89161425  .00002046  00000+0  23975-3 0  9999
2 40043  97.7853 334.5225 0049610  21.4414 338.8864 14.85222821648106
AEROCUBE 6A             
1 40045U 14033AM  26184.45369331  .00005671  00000+0  47526-3 0  9994
2 40045  97.7233 351.2313 0037658 321.2886  38.5638 14.98249563649051
AEROCUBE 6B             
1 40046U 14033AN  26185.17410529  .00006644  00000+0  53498-3 0  9997
2 40046  97.7223 351.7719 0037754 309.2402  50.5472 14.99720587649302
CANX-4                  
1 40055U 14034C   26185.10691121  .00001136  00000+0  15286-3 0  9994
2 40055  98.3099  61.0395 0011931 321.8870  38.1497 14.81296258647030
CANX-5                  
1 40056U 14034D   26185.10514705  .00001141  00000+0  15341-3 0  9995
2 40056  98.3102  61.0823 0011919 322.1300  37.9072 14.81313607637842
UKUBE-1                 
1 40074U 14037F   26184.95899104  .00010136  00000+0  56512-3 0  9998
2 40074  98.4240 189.9960 0003183 106.0506 254.1073 15.13812565651099
BRITE-PL2 (HEWELIUSZ)   
1 40119U 14049B   26185.04319314  .00002174  00000+0  20567-3 0  9996
2 40119  97.9112 297.1746 0015011  57.2784 302.9880 14.94655576643963
AEROCUBE 5C             
1 40965U 15058B   26185.06777563  .00002945  00000+0  26327-3 0  9998
2 40965  64.7652 210.0726 0131623  56.6951 304.6686 14.91525821368178
AEROCUBE 7              
1 40966U 15058C   26185.28316895  .00005310  00000+0  42223-3 0  9992
2 40966  64.7604 191.2627 0121342  54.9541 306.2885 14.95836497368514
FOX-1A (AO-85)          
1 40967U 15058D   26185.12083989  .00002883  00000+0  26143-3 0  9996
2 40967  64.7734 226.3568 0131532  50.0240 311.2334 14.91042511116099
SINOD-D 1               
1 40968U 15058E   26185.05852924  .00004654  00000+0  37120-3 0  9997
2 40968  64.7731 206.0740 0120203  46.4359 314.6659 14.96010269119187
SNAP-3 ALICE            
1 40970U 15058G   26185.01048032  .00168597  00000+0  16845-2 0  9990
2 40970  64.7493  45.5982 0023544 358.0234   2.0816 15.64488007119518
LMRST-SAT               
1 40971U 15058H   26185.08048545  .00002763  00000+0  25275-3 0  9997
2 40971  64.7740 222.8520 0133101  52.0567 309.2485 14.90658501116071
SNAP-3 EDDIE            
1 40972U 15058J   26184.98735330  .00169237  00000+0  16094-2 0  9999
2 40972  64.7408  36.2781 0024363   1.2294 358.8910 15.65699419121650
PROPCUBE 3              
1 40973U 15058K   26185.00758218  .00004061  00000+0  33671-3 0  9998
2 40973  64.7664 199.9787 0124981  53.3206 307.9316 14.94349268117314
BISONSAT                
1 40974U 15058L   26185.24608082  .00021042  00000+0  99022-3 0  9998
2 40974  64.7584 118.4723 0080958  40.4413 320.2690 15.16671744118208
SNAP-3 JIMI             
1 40975U 15058M   26184.96369642  .00008296  00000+0  56177-3 0  9993
2 40975  64.7640 166.6854 0107075  48.6968 312.3306 15.02480563116742
PROPCUBE 1 (FLORA)      
1 40976U 15058N   26185.18521724  .00002296  00000+0  22111-3 0  9995
2 40976  64.7729 242.5524 0131702  54.3298 306.9989 14.89291806118790
SINOD-D 3               
1 40977U 15058P   26185.10887765  .00003865  00000+0  32680-3 0  9993
2 40977  64.7705 222.9746 0120271  51.4358 309.7457 14.94112236117286
HORYU-4                 
1 41340U 16012D   26182.79199294  .04204222 -38650-5  11151-2 0  9996
2 41340  30.9791 330.1929 0008659 346.1826  13.8606 16.27112331573161
RAVAN                   
1 41849U 16067B   26185.15553856  .00079818  00000+0  11220-2 0  9996
2 41849  97.9852  76.7075 0001677 308.8604  51.2499 15.56420115530334
CELTEE 1                
1 41850U 16067C   26185.06245971  .00006955  00000+0  32784-3 0  9995
2 41850  98.0647  52.7800 0001862 123.6786 236.4625 15.19850888528440
OPTICUBE 04             
1 41851U 16067D   26185.04683024  .00002653  00000+0  16841-3 0  9996
2 41851  98.0683  38.2093 0016909  63.3727 296.9230 15.09735597527717
AEROCUBE 8D             
1 41852U 16067E   26184.89285243  .00008936  00000+0  36506-3 0  9990
2 41852  98.0655  56.3352 0004977  83.6012 276.5791 15.24636107528610
AEROCUBE 8C             
1 41853U 16067F   26184.58698662  .00009314  00000+0  37756-3 0  9999
2 41853  98.0528  53.2126 0005433  21.9953 338.1515 15.24882899528566
CORVUS BC2              
1 42846U 17042X   26185.20034726  .00004771  00000+0  32717-3 0  9995
2 42846  97.4082 345.8903 0014006  57.5437 302.7143 15.06403607489621
CORVUS BC1              
1 42847U 17042Y   26184.52889921  .00004582  00000+0  31310-3 0  9993
2 42847  97.4116 346.0695 0012564  38.2170 321.9946 15.06565738489558
MAKERSAT 0              
1 43016U 17073D   26184.63594315  .00020784  00000+0  55467-3 0  9999
2 43016  97.4595  67.2865 0104955 213.5729 145.8834 15.32642938468983
